CCSDS_OMM_VERS = 2.0
CREATION_DATE  = 
ORIGINATOR     = 

OBJECT_NAME    = STARLINK-36606
OBJECT_ID      = 2026-033AA
CENTER_NAME    = EARTH
REF_FRAME      = TEME
TIME_SYSTEM    = UTC
MEAN_ELEMENT_THEORY = SGP/SGP4

EPOCH          = 2026-03-18T14:00:01.000224
MEAN_MOTION    = 15.53269786
ECCENTRICITY   = .00019262
INCLINATION    = 43.0003
RA_OF_ASC_NODE = 217.6542
ARG_OF_PERICENTER = 258.3031
MEAN_ANOMALY   = 134.1090

EPHEMERIS_TYPE = 0
CLASSIFICATION_TYPE = U
NORAD_CAT_ID   = 67845
ELEMENT_SET_NO = 999
REV_AT_EPOCH   = 609
BSTAR          = -.27987807E-1
MEAN_MOTION_DOT = -.1625829E-1
MEAN_MOTION_DDOT = 0

CCSDS_OMM_VERS = 2.0
CREATION_DATE  = 
ORIGINATOR     = 

OBJECT_NAME    = STARLINK-36658
OBJECT_ID      = 2026-033AB
CENTER_NAME    = EARTH
REF_FRAME      = TEME
TIME_SYSTEM    = UTC
MEAN_ELEMENT_THEORY = SGP/SGP4

EPOCH          = 2026-03-18T14:00:01.000224
MEAN_MOTION    = 15.50541751
ECCENTRICITY   = .00020928
INCLINATION    = 42.9998
RA_OF_ASC_NODE = 218.0518
ARG_OF_PERICENTER = 286.4785
MEAN_ANOMALY   = 304.2351

EPHEMERIS_TYPE = 0
CLASSIFICATION_TYPE = U
NORAD_CAT_ID   = 67846
ELEMENT_SET_NO = 999
REV_AT_EPOCH   = 609
BSTAR          = .52244175E-3
MEAN_MOTION_DOT = .30387E-3
MEAN_MOTION_DDOT = 0

CCSDS_OMM_VERS = 2.0
CREATION_DATE  = 
ORIGINATOR     = 

OBJECT_NAME    = STARLINK-36618
OBJECT_ID      = 2026-033AC
CENTER_NAME    = EARTH
REF_FRAME      = TEME
TIME_SYSTEM    = UTC
MEAN_ELEMENT_THEORY = SGP/SGP4

EPOCH          = 2026-03-18T14:00:01.000224
MEAN_MOTION    = 15.87539696
ECCENTRICITY   = .00015692
INCLINATION    = 42.9752
RA_OF_ASC_NODE = 213.8115
ARG_OF_PERICENTER = 291.4935
MEAN_ANOMALY   = 178.9843

EPHEMERIS_TYPE = 0
CLASSIFICATION_TYPE = U
NORAD_CAT_ID   = 67847
ELEMENT_SET_NO = 999
REV_AT_EPOCH   = 609
BSTAR          = -.27141273E-2
MEAN_MOTION_DOT = -.69093E-2
MEAN_MOTION_DDOT = 0

CCSDS_OMM_VERS = 2.0
CREATION_DATE  = 
ORIGINATOR     = 

OBJECT_NAME    = STARLINK-36660
OBJECT_ID      = 2026-033AD
CENTER_NAME    = EARTH
REF_FRAME      = TEME
TIME_SYSTEM    = UTC
MEAN_ELEMENT_THEORY = SGP/SGP4

EPOCH          = 2026-03-18T14:00:01.000224
MEAN_MOTION    = 15.50578362
ECCENTRICITY   = .00014313
INCLINATION    = 42.9999
RA_OF_ASC_NODE = 218.1374
ARG_OF_PERICENTER = 259.0094
MEAN_ANOMALY   = 296.6843

EPHEMERIS_TYPE = 0
CLASSIFICATION_TYPE = U
NORAD_CAT_ID   = 67848
ELEMENT_SET_NO = 999
REV_AT_EPOCH   = 609
BSTAR          = .53369216E-3
MEAN_MOTION_DOT = .31091E-3
MEAN_MOTION_DDOT = 0

CCSDS_OMM_VERS = 2.0
CREATION_DATE  = 
ORIGINATOR     = 

OBJECT_NAME    = STARLINK-36602
OBJECT_ID      = 2026-033AE
CENTER_NAME    = EARTH
REF_FRAME      = TEME
TIME_SYSTEM    = UTC
MEAN_ELEMENT_THEORY = SGP/SGP4

EPOCH          = 2026-03-18T14:00:01.000224
MEAN_MOTION    = 15.50542625
ECCENTRICITY   = .00018745
INCLINATION    = 42.9999
RA_OF_ASC_NODE = 218.0879
ARG_OF_PERICENTER = 277.6456
MEAN_ANOMALY   = 298.0538

EPHEMERIS_TYPE = 0
CLASSIFICATION_TYPE = U
NORAD_CAT_ID   = 67849
ELEMENT_SET_NO = 999
REV_AT_EPOCH   = 609
BSTAR          = .48327471E-3
MEAN_MOTION_DOT = .28075E-3
MEAN_MOTION_DDOT = 0

CCSDS_OMM_VERS = 2.0
CREATION_DATE  = 
ORIGINATOR     = 

OBJECT_NAME    = STARLINK-36840
OBJECT_ID      = 2026-034A
CENTER_NAME    = EARTH
REF_FRAME      = TEME
TIME_SYSTEM    = UTC
MEAN_ELEMENT_THEORY = SGP/SGP4

EPOCH          = 2026-03-18T13:58:23.747520
MEAN_MOTION    = 15.81302733
ECCENTRICITY   = .001615
INCLINATION    = 53.1566
RA_OF_ASC_NODE = 166.7909
ARG_OF_PERICENTER = 252.7676
MEAN_ANOMALY   = 107.1579

EPHEMERIS_TYPE = 0
CLASSIFICATION_TYPE = U
NORAD_CAT_ID   = 67850
ELEMENT_SET_NO = 999
REV_AT_EPOCH   = 534
BSTAR          = .17908557E-2
MEAN_MOTION_DOT = .378923E-2
MEAN_MOTION_DDOT = 0

CCSDS_OMM_VERS = 2.0
CREATION_DATE  = 
ORIGINATOR     = 

OBJECT_NAME    = STARLINK-36348
OBJECT_ID      = 2026-034B
CENTER_NAME    = EARTH
REF_FRAME      = TEME
TIME_SYSTEM    = UTC
MEAN_ELEMENT_THEORY = SGP/SGP4

EPOCH          = 2026-03-17T18:14:02.898528
MEAN_MOTION    = 15.80893524
ECCENTRICITY   = .00010687
INCLINATION    = 53.1587
RA_OF_ASC_NODE = 170.9037
ARG_OF_PERICENTER = 87.7609
MEAN_ANOMALY   = 272.3536

EPHEMERIS_TYPE = 0
CLASSIFICATION_TYPE = U
NORAD_CAT_ID   = 67851
ELEMENT_SET_NO = 999
REV_AT_EPOCH   = 521
BSTAR          = .13162336E-2
MEAN_MOTION_DOT = .267546E-2
MEAN_MOTION_DDOT = 0

CCSDS_OMM_VERS = 2.0
CREATION_DATE  = 
ORIGINATOR     = 

OBJECT_NAME    = STARLINK-36276
OBJECT_ID      = 2026-034C
CENTER_NAME    = EARTH
REF_FRAME      = TEME
TIME_SYSTEM    = UTC
MEAN_ELEMENT_THEORY = SGP/SGP4

EPOCH          = 2026-03-18T12:24:18.813024
MEAN_MOTION    = 15.82301433
ECCENTRICITY   = .00069754
INCLINATION    = 53.1582
RA_OF_ASC_NODE = 167.0924
ARG_OF_PERICENTER = 213.8100
MEAN_ANOMALY   = 146.2480

EPHEMERIS_TYPE = 0
CLASSIFICATION_TYPE = U
NORAD_CAT_ID   = 67852
ELEMENT_SET_NO = 999
REV_AT_EPOCH   = 533
BSTAR          = .2100428E-2
MEAN_MOTION_DOT = .46733E-2
MEAN_MOTION_DDOT = 0

CCSDS_OMM_VERS = 2.0
CREATION_DATE  = 
ORIGINATOR     = 

OBJECT_NAME    = STARLINK-36785
OBJECT_ID      = 2026-034D
CENTER_NAME    = EARTH
REF_FRAME      = TEME
TIME_SYSTEM    = UTC
MEAN_ELEMENT_THEORY = SGP/SGP4

EPOCH          = 2026-03-17T16:40:51.030048
MEAN_MOTION    = 15.81105538
ECCENTRICITY   = .00009289
INCLINATION    = 53.1583
RA_OF_ASC_NODE = 171.2112
ARG_OF_PERICENTER = 181.8459
MEAN_ANOMALY   = 178.2560

EPHEMERIS_TYPE = 0
CLASSIFICATION_TYPE = U
NORAD_CAT_ID   = 67853
ELEMENT_SET_NO = 999
REV_AT_EPOCH   = 520
BSTAR          = .18620649E-2
MEAN_MOTION_DOT = .387956E-2
MEAN_MOTION_DDOT = 0

CCSDS_OMM_VERS = 2.0
CREATION_DATE  = 
ORIGINATOR     = 

OBJECT_NAME    = STARLINK-36608
OBJECT_ID      = 2026-034E
CENTER_NAME    = EARTH
REF_FRAME      = TEME
TIME_SYSTEM    = UTC
MEAN_ELEMENT_THEORY = SGP/SGP4

EPOCH          = 2026-03-18T12:23:14.007840
MEAN_MOTION    = 15.81149649
ECCENTRICITY   = .00020889
INCLINATION    = 53.1564
RA_OF_ASC_NODE = 167.0867
ARG_OF_PERICENTER = 140.1703
MEAN_ANOMALY   = 219.9474

EPHEMERIS_TYPE = 0
CLASSIFICATION_TYPE = U
NORAD_CAT_ID   = 67854
ELEMENT_SET_NO = 999
REV_AT_EPOCH   = 532
BSTAR          = .19211108E-2
MEAN_MOTION_DOT = .401726E-2
MEAN_MOTION_DDOT = 0

CCSDS_OMM_VERS = 2.0
CREATION_DATE  = 
ORIGINATOR     = 

OBJECT_NAME    = STARLINK-36838
OBJECT_ID      = 2026-034F
CENTER_NAME    = EARTH
REF_FRAME      = TEME
TIME_SYSTEM    = UTC
MEAN_ELEMENT_THEORY = SGP/SGP4

EPOCH          = 2026-03-18T12:22:09.242400
MEAN_MOTION    = 15.81196394
ECCENTRICITY   = .00026436
INCLINATION    = 53.1567
RA_OF_ASC_NODE = 167.0810
ARG_OF_PERICENTER = 121.7489
MEAN_ANOMALY   = 238.3792

EPHEMERIS_TYPE = 0
CLASSIFICATION_TYPE = U
NORAD_CAT_ID   = 67855
ELEMENT_SET_NO = 999
REV_AT_EPOCH   = 533
BSTAR          = .22230969E-2
MEAN_MOTION_DOT = .46972E-2
MEAN_MOTION_DDOT = 0

CCSDS_OMM_VERS = 2.0
CREATION_DATE  = 
ORIGINATOR     = 

OBJECT_NAME    = STARLINK-36843
OBJECT_ID      = 2026-034G
CENTER_NAME    = EARTH
REF_FRAME      = TEME
TIME_SYSTEM    = UTC
MEAN_ELEMENT_THEORY = SGP/SGP4

EPOCH          = 2026-03-18T12:19:59.718432
MEAN_MOTION    = 15.81188047
ECCENTRICITY   = .00012519
INCLINATION    = 53.1577
RA_OF_ASC_NODE = 167.0716
ARG_OF_PERICENTER = 128.6372
MEAN_ANOMALY   = 231.4763

EPHEMERIS_TYPE = 0
CLASSIFICATION_TYPE = U
NORAD_CAT_ID   = 67856
ELEMENT_SET_NO = 999
REV_AT_EPOCH   = 533
BSTAR          = .18857109E-2
MEAN_MOTION_DOT = .394693E-2
MEAN_MOTION_DDOT = 0

