STARLINK-36606          
1 67845U 26033AA  26077.58334491 -.01625829  00000+0 -27988-1 0  9992
2 67845  43.0003 217.6542 0001926 258.3031 134.1090 15.53269786  6094
STARLINK-36658          
1 67846U 26033AB  26077.58334491  .00030387  00000+0  52244-3 0  9994
2 67846  42.9998 218.0518 0002092 286.4785 304.2351 15.50541751  6099
STARLINK-36618          
1 67847U 26033AC  26077.58334491 -.00690930  00000+0 -27141-2 0  9990
2 67847  42.9752 213.8115 0001569 291.4935 178.9843 15.87539696  6092
STARLINK-36660          
1 67848U 26033AD  26077.58334491  .00031091  00000+0  53369-3 0  9998
2 67848  42.9999 218.1374 0001431 259.0094 296.6843 15.50578362  6096
STARLINK-36602          
1 67849U 26033AE  26077.58334491  .00028075  00000+0  48327-3 0  9995
2 67849  42.9999 218.0879 0001874 277.6456 298.0538 15.50542625  6095
STARLINK-36840          
1 67850U 26034A   26077.58221930  .00378923  00000+0  17909-2 0  9992
2 67850  53.1566 166.7909 0016150 252.7676 107.1579 15.81302733  5345
STARLINK-36348          
1 67851U 26034B   26076.75975577  .00267546  00000+0  13162-2 0  9999
2 67851  53.1587 170.9037 0001068  87.7609 272.3536 15.80893524  5218
STARLINK-36276          
1 67852U 26034C   26077.51688441  .00467330  00000+0  21004-2 0  9993
2 67852  53.1582 167.0924 0006975 213.8100 146.2480 15.82301433  5331
STARLINK-36785          
1 67853U 26034D   26076.69503507  .00387956  00000+0  18621-2 0  9997
2 67853  53.1583 171.2112 0000928 181.8459 178.2560 15.81105538  5209
STARLINK-36608          
1 67854U 26034E   26077.51613435  .00401726  00000+0  19211-2 0  9990
2 67854  53.1564 167.0867 0002088 140.1703 219.9474 15.81149649  5329
STARLINK-36838          
1 67855U 26034F   26077.51538475  .00469720  00000+0  22231-2 0  9995
2 67855  53.1567 167.0810 0002643 121.7489 238.3792 15.81196394  5332
STARLINK-36843          
1 67856U 26034G   26077.51388563  .00394693  00000+0  18857-2 0  9992
2 67856  53.1577 167.0716 0001251 128.6372 231.4763 15.81188047  5338
